{"type": "FeatureCollection", "features": [ {"type": "Feature", "properties": {"norad_id": 42741, "name": "EUTELSAT 172B", "group": "eutelsat", "lat": -0.01727755263981802, "lon": -13.48384225815971, "alt_km": 35786.69438090052, "timestamp": "2025-12-20T05:41:49.689746+00:00", "meta": {"OBJECT_NAME": "EUTELSAT 172B", "OBJECT_ID": "2017-029B", "EPOCH": "2025-12-19T19:13:02.707392", "MEAN_MOTION": 1.00271075, "ECCENTRICITY": 2.896e-05, "INCLINATION": 0.0413, "RA_OF_ASC_NODE": 134.8528, "ARG_OF_PERICENTER": 322.2287, "MEAN_ANOMALY": 91.8225, "EPHEMERIS_TYPE": 0, "CLASSIFICATION_TYPE": "U", "NORAD_CAT_ID": 42741, "ELEMENT_SET_NO": 999, "REV_AT_EPOCH": 3193, "BSTAR": 0, "MEAN_MOTION_DOT": 1.9e-07, "MEAN_MOTION_DDOT": 0}, "tle": {"line1": "1 42741U 17029B   25353.80072578  .00000019  00000+0  00000+0 0  9990", "line2": "2 42741   0.0413 134.8528 0000289 322.2287  91.8225  1.00271075 31930"}}, "geometry": {"type": "Point", "coordinates": [-13.48384225815971, -0.01727755263981802]}}, {"type": "Feature", "properties": {"norad_id": 44334, "name": "EUTELSAT 7C", "group": "eutelsat", "lat": -0.005291616984407761, "lon": -178.5266285546796, "alt_km": 35782.173549011975, "timestamp": "2025-12-20T05:41:49.689758+00:00", "meta": {"OBJECT_NAME": "EUTELSAT 7C", "OBJECT_ID": "2019-034B", "EPOCH": "2025-12-19T13:17:54.868128", "MEAN_MOTION": 1.00270496, "ECCENTRICITY": 0.0003054, "INCLINATION": 0.0733, "RA_OF_ASC_NODE": 179.964, "ARG_OF_PERICENTER": 72.3162, "MEAN_ANOMALY": 42.5872, "EPHEMERIS_TYPE": 0, "CLASSIFICATION_TYPE": "U", "NORAD_CAT_ID": 44334, "ELEMENT_SET_NO": 999, "REV_AT_EPOCH": 503, "BSTAR": 0, "MEAN_MOTION_DOT": 7.3e-07, "MEAN_MOTION_DDOT": 0}, "tle": {"line1": "1 44334U 19034B   25353.55410727  .00000073  00000+0  00000+0 0  9992", "line2": "2 44334   0.0733 179.9640 0003054  72.3162  42.5872  1.00270496  5037"}}, "geometry": {"type": "Point", "coordinates": [-178.5266285546796, -0.005291616984407761]}}, {"type": "Feature", "properties": {"norad_id": 44624, "name": "EUTELSAT 5 WEST B", "group": "eutelsat", "lat": -0.01797978822880005, "lon": 169.49303968099542, "alt_km": 35788.28364834664, "timestamp": "2025-12-20T05:41:49.689770+00:00", "meta": {"OBJECT_NAME": "EUTELSAT 5 WEST B", "OBJECT_ID": "2019-067A", "EPOCH": "2025-12-19T18:22:30.046656", "MEAN_MOTION": 1.0027128, "ECCENTRICITY": 0.00029941, "INCLINATION": 0.0681, "RA_OF_ASC_NODE": 333.6647, "ARG_OF_PERICENTER": 295.2265, "MEAN_ANOMALY": 90.35, "EPHEMERIS_TYPE": 0, "CLASSIFICATION_TYPE": "U", "NORAD_CAT_ID": 44624, "ELEMENT_SET_NO": 999, "REV_AT_EPOCH": 2263, "BSTAR": 0, "MEAN_MOTION_DOT": -1.8e-07, "MEAN_MOTION_DDOT": 0}, "tle": {"line1": "1 44624U 19067A   25353.76562554 -.00000018  00000+0  00000+0 0  9999", "line2": "2 44624   0.0681 333.6647 0002994 295.2265  90.3500  1.00271280 22635"}}, "geometry": {"type": "Point", "coordinates": [169.49303968099542, -0.01797978822880005]}}, {"type": "Feature", "properties": {"norad_id": 45027, "name": "EUTELSAT KONNECT", "group": "eutelsat", "lat": 0.06286963621809506, "lon": -178.29108828454753, "alt_km": 35788.066008155205, "timestamp": "2025-12-20T05:41:49.689782+00:00", "meta": {"OBJECT_NAME": "EUTELSAT KONNECT", "OBJECT_ID": "2020-005B", "EPOCH": "2025-12-19T13:17:54.868128", "MEAN_MOTION": 1.00269378, "ECCENTRICITY": 0.00012882, "INCLINATION": 0.0703, "RA_OF_ASC_NODE": 95.1584, "ARG_OF_PERICENTER": 191.2571, "MEAN_ANOMALY": 8.6712, "EPHEMERIS_TYPE": 0, "CLASSIFICATION_TYPE": "U", "NORAD_CAT_ID": 45027, "ELEMENT_SET_NO": 999, "REV_AT_EPOCH": 2253, "BSTAR": 0, "MEAN_MOTION_DOT": 7.4e-07, "MEAN_MOTION_DDOT": 0}, "tle": {"line1": "1 45027U 20005B   25353.55410727  .00000074  00000+0  00000+0 0  9993", "line2": "2 45027   0.0703  95.1584 0001288 191.2571   8.6712  1.00269378 22539"}}, "geometry": {"type": "Point", "coordinates": [-178.29108828454753, 0.06286963621809506]}}, {"type": "Feature", "properties": {"norad_id": 49056, "name": "EUTELSAT QUANTUM", "group": "eutelsat", "lat": -0.0179490994165904, "lon": -137.80589909625212, "alt_km": 35778.296785849074, "timestamp": "2025-12-20T05:41:49.689794+00:00", "meta": {"OBJECT_NAME": "EUTELSAT QUANTUM", "OBJECT_ID": "2021-069B", "EPOCH": "2025-12-19T20:49:38.856576", "MEAN_MOTION": 1.00271835, "ECCENTRICITY": 0.00033318, "INCLINATION": 0.0181, "RA_OF_ASC_NODE": 30.6611, "ARG_OF_PERICENTER": 248.4465, "MEAN_ANOMALY": 169.7189, "EPHEMERIS_TYPE": 0, "CLASSIFICATION_TYPE": "U", "NORAD_CAT_ID": 49056, "ELEMENT_SET_NO": 999, "REV_AT_EPOCH": 1613, "BSTAR": 0, "MEAN_MOTION_DOT": 1.5e-06, "MEAN_MOTION_DDOT": 0}, "tle": {"line1": "1 49056U 21069B   25353.86781084  .00000150  00000+0  00000+0 0  9996", "line2": "2 49056   0.0181  30.6611 0003331 248.4465 169.7189  1.00271835 16135"}}, "geometry": {"type": "Point", "coordinates": [-137.80589909625212, -0.0179490994165904]}}, {"type": "Feature", "properties": {"norad_id": 53765, "name": "EUTELSAT KONNECT VHTS", "group": "eutelsat", "lat": 0.05555644435780904, "lon": 177.24639781812257, "alt_km": 35779.66765776977, "timestamp": "2025-12-20T05:41:49.689805+00:00", "meta": {"OBJECT_NAME": "EUTELSAT KONNECT VHTS", "OBJECT_ID": "2022-110A", "EPOCH": "2025-12-19T09:50:55.049568", "MEAN_MOTION": 1.00273229, "ECCENTRICITY": 0.00025267, "INCLINATION": 0.0629, "RA_OF_ASC_NODE": 100.2857, "ARG_OF_PERICENTER": 132.7445, "MEAN_ANOMALY": 5.7025, "EPHEMERIS_TYPE": 0, "CLASSIFICATION_TYPE": "U", "NORAD_CAT_ID": 53765, "ELEMENT_SET_NO": 999, "REV_AT_EPOCH": 502, "BSTAR": 0, "MEAN_MOTION_DOT": 4.2e-07, "MEAN_MOTION_DDOT": 0}, "tle": {"line1": "1 53765U 22110A   25353.41035937  .00000042  00000+0  00000+0 0  9996", "line2": "2 53765   0.0629 100.2857 0002526 132.7445   5.7025  1.00273229  5021"}}, "geometry": {"type": "Point", "coordinates": [177.24639781812257, 0.05555644435780904]}}, {"type": "Feature", "properties": {"norad_id": 54048, "name": "EUTELSAT HOTBIRD 13F", "group": "eutelsat", "lat": -0.05091345351988742, "lon": -172.48661356865415, "alt_km": 35795.832695926896, "timestamp": "2025-12-20T05:41:49.689817+00:00", "meta": {"OBJECT_NAME": "EUTELSAT HOTBIRD 13F", "OBJECT_ID": "2022-134A", "EPOCH": "2025-12-19T18:27:37.056960", "MEAN_MOTION": 1.00272066, "ECCENTRICITY": 0.00023556, "INCLINATION": 0.0491, "RA_OF_ASC_NODE": 294.8043, "ARG_OF_PERICENTER": 69.7798, "MEAN_ANOMALY": 13.9259, "EPHEMERIS_TYPE": 0, "CLASSIFICATION_TYPE": "U", "NORAD_CAT_ID": 54048, "ELEMENT_SET_NO": 999, "REV_AT_EPOCH": 1157, "BSTAR": 0, "MEAN_MOTION_DOT": 1.12e-06, "MEAN_MOTION_DDOT": 0}, "tle": {"line1": "1 54048U 22134A   25353.76917890  .00000112  00000+0  00000+0 0  9990", "line2": "2 54048   0.0491 294.8043 0002355  69.7798  13.9259  1.00272066 11575"}}, "geometry": {"type": "Point", "coordinates": [-172.48661356865415, -0.05091345351988742]}}, {"type": "Feature", "properties": {"norad_id": 54225, "name": "EUTELSAT HOTBIRD 13G", "group": "eutelsat", "lat": -0.033200301351785234, "lon": -172.4823329557019, "alt_km": 35778.571805625004, "timestamp": "2025-12-20T05:41:49.689831+00:00", "meta": {"OBJECT_NAME": "EUTELSAT HOTBIRD 13G", "OBJECT_ID": "2022-146A", "EPOCH": "2025-12-19T18:27:37.056960", "MEAN_MOTION": 1.0027241, "ECCENTRICITY": 0.00017892, "INCLINATION": 0.0515, "RA_OF_ASC_NODE": 225.8744, "ARG_OF_PERICENTER": 308.1908, "MEAN_ANOMALY": 204.4423, "EPHEMERIS_TYPE": 0, "CLASSIFICATION_TYPE": "U", "NORAD_CAT_ID": 54225, "ELEMENT_SET_NO": 999, "REV_AT_EPOCH": 566, "BSTAR": 0, "MEAN_MOTION_DOT": 1.12e-06, "MEAN_MOTION_DDOT": 0}, "tle": {"line1": "1 54225U 22146A   25353.76917890  .00000112  00000+0  00000+0 0  9990", "line2": "2 54225   0.0515 225.8744 0001789 308.1908 204.4423  1.00272410  5660"}}, "geometry": {"type": "Point", "coordinates": [-172.4823329557019, -0.033200301351785234]}}, {"type": "Feature", "properties": {"norad_id": 54259, "name": "EUTELSAT 10B", "group": "eutelsat", "lat": 0.05347178003723585, "lon": -175.5570896094354, "alt_km": 35789.70233139558, "timestamp": "2025-12-20T05:41:49.689846+00:00", "meta": {"OBJECT_NAME": "EUTELSAT 10B", "OBJECT_ID": "2022-157A", "EPOCH": "2025-12-19T03:02:18.037824", "MEAN_MOTION": 1.00249724, "ECCENTRICITY": 0.000237, "INCLINATION": 0.0621, "RA_OF_ASC_NODE": 98.3483, "ARG_OF_PERICENTER": 10.4873, "MEAN_ANOMALY": 34.7012, "EPHEMERIS_TYPE": 0, "CLASSIFICATION_TYPE": "U", "NORAD_CAT_ID": 54259, "ELEMENT_SET_NO": 999, "REV_AT_EPOCH": 1122, "BSTAR": 0, "MEAN_MOTION_DOT": 9e-07, "MEAN_MOTION_DDOT": 0}, "tle": {"line1": "1 54259U 22157A   25353.12659766  .00000090  00000+0  00000+0 0  9999", "line2": "2 54259   0.0621  98.3483 0002370  10.4873  34.7012  1.00249724 11228"}}, "geometry": {"type": "Point", "coordinates": [-175.5570896094354, 0.05347178003723585]}}, {"type": "Feature", "properties": {"norad_id": 59346, "name": "EUTELSAT 36D", "group": "eutelsat", "lat": -0.015935861178037483, "lon": -149.64126083820975, "alt_km": 35789.06948015033, "timestamp": "2025-12-20T05:41:49.689857+00:00", "meta": {"OBJECT_NAME": "EUTELSAT 36D", "OBJECT_ID": "2024-059A", "EPOCH": "2025-12-19T19:44:38.802912", "MEAN_MOTION": 1.00270892, "ECCENTRICITY": 7.164e-05, "INCLINATION": 0.0256, "RA_OF_ASC_NODE": 21.4578, "ARG_OF_PERICENTER": 346.9459, "MEAN_ANOMALY": 52.265, "EPHEMERIS_TYPE": 0, "CLASSIFICATION_TYPE": "U", "NORAD_CAT_ID": 59346, "ELEMENT_SET_NO": 999, "REV_AT_EPOCH": 634, "BSTAR": 0, "MEAN_MOTION_DOT": 0, "MEAN_MOTION_DDOT": 0}, "tle": {"line1": "1 59346U 24059A   25353.82267133  .00000000  00000+0  00000+0 0  9995", "line2": "2 59346   0.0256  21.4578 0000716 346.9459  52.2650  1.00270892  6345"}}, "geometry": {"type": "Point", "coordinates": [-149.64126083820975, -0.015935861178037483]}}]}